ONEWEB-0564             
1 55801U 23029F   25229.57718907  .00000164  00000+0  37235-3 0  9992
2 55801  87.9293 334.9801 0002321 106.5911 253.5477 13.20774001121077
ONEWEB-0638             
1 55802U 23029G   25229.60698983 -.00000092  00000+0 -28206-3 0  9998
2 55802  87.9092 350.1877 0002357  97.4130 262.7267 13.14504282119518
ONEWEB-0639             
1 55803U 23029H   25229.61310474  .00000098  00000+0  21181-3 0  9995
2 55803  87.9259   5.3354 0001794  59.6871 300.4439 13.19725799118860
ONEWEB-0640             
1 55804U 23029J   25229.61650403  .00000126  00000+0  30451-3 0  9997
2 55804  87.9087 350.1724 0002452  87.1138 273.0272 13.14502118119534
ONEWEB-0641             
1 55805U 23029K   25229.30510019 -.00000010  00000+0 -57286-4 0  9992
2 55805  87.9263   5.3681 0001750  90.3022 269.8311 13.19725560118832
ONEWEB-0642             
1 55806U 23029L   25229.37617464  .00000076  00000+0  15813-3 0  9991
2 55806  87.9257   5.3903 0001462  66.6553 293.4734 13.19727308118832
ONEWEB-0643             
1 55807U 23029M   25229.58637168 -.00000087  00000+0 -26842-3 0  9996
2 55807  87.9080 350.1610 0001405  84.3089 275.8201 13.14502262119504
ONEWEB-0644             
1 55808U 23029N   25229.14398111  .00000018  00000+0  12255-4 0  9997
2 55808  87.9263   5.4430 0001543  81.0126 279.1182 13.19726775118806
ONEWEB-0645             
1 55809U 23029P   25229.14004487 -.00000038  00000+0 -12663-3 0  9994
2 55809  87.9247   5.4329 0001981  87.6834 272.4525 13.19725517118800
ONEWEB-0646             
1 55810U 23029Q   25229.32493155  .00000136  00000+0  31005-3 0  9998
2 55810  87.9245   5.3889 0001634  91.7095 268.4224 13.19254348118811
ONEWEB-0648             
1 55811U 23029R   25229.63079518  .00000304  00000+0  78518-3 0  9993
2 55811  87.9080 350.1266 0001940  68.9177 291.2160 13.14503863119511
ONEWEB-0649             
1 55812U 23029S   25229.36038753  .00000027  00000+0  34226-4 0  9991
2 55812  87.9259   5.3759 0001837  81.4054 278.7287 13.19724490118857
ONEWEB-0650             
1 55813U 23029T   25229.35564887  .00000009  00000+0 -10220-4 0  9992
2 55813  87.9258   5.3878 0001711  91.3056 268.8273 13.19724822118823
ONEWEB-0652             
1 55814U 23029U   25229.61174450 -.00000048  00000+0 -16460-3 0  9990
2 55814  87.9088 350.1424 0001900 103.6489 256.4853 13.14502324119486
ONEWEB-0653             
1 55815U 23029V   25229.59589788 -.00000071  00000+0 -22709-3 0  9991
2 55815  87.9090 350.1349 0002075  99.8340 260.3024 13.14502976119513
ONEWEB-0654             
1 55816U 23029W   25229.59113177 -.00000174  00000+0 -50464-3 0  9990
2 55816  87.9083 350.1340 0002081 108.1965 251.9391 13.14503479119535
ONEWEB-0656             
1 55817U 23029X   25229.57086206  .00001090  00000+0  26487-2 0  9994
2 55817  87.9304 334.9266 0002209 110.0192 250.1179 13.20780307121076
