[{"OBJECT_NAME":"ONEWEB-0564","OBJECT_ID":"2023-029F","EPOCH":"2025-08-17T13:51:09.135648","MEAN_MOTION":13.20774001,"ECCENTRICITY":0.0002321,"INCLINATION":87.9293,"RA_OF_ASC_NODE":334.9801,"ARG_OF_PERICENTER":106.5911,"MEAN_ANOMALY":253.5477,"EPHEMERIS_TYPE":0,"CLASSIFICATION_TYPE":"U","NORAD_CAT_ID":55801,"ELEMENT_SET_NO":999,"REV_AT_EPOCH":12107,"BSTAR":0.00037235,"MEAN_MOTION_DOT":1.64e-6,"MEAN_MOTION_DDOT":0},{"OBJECT_NAME":"ONEWEB-0638","OBJECT_ID":"2023-029G","EPOCH":"2025-08-17T14:34:03.921312","MEAN_MOTION":13.14504282,"ECCENTRICITY":0.0002357,"INCLINATION":87.9092,"RA_OF_ASC_NODE":350.1877,"ARG_OF_PERICENTER":97.413,"MEAN_ANOMALY":262.7267,"EPHEMERIS_TYPE":0,"CLASSIFICATION_TYPE":"U","NORAD_CAT_ID":55802,"ELEMENT_SET_NO":999,"REV_AT_EPOCH":11951,"BSTAR":-0.00028206,"MEAN_MOTION_DOT":-9.2e-7,"MEAN_MOTION_DDOT":0},{"OBJECT_NAME":"ONEWEB-0639","OBJECT_ID":"2023-029H","EPOCH":"2025-08-17T14:42:52.249536","MEAN_MOTION":13.19725799,"ECCENTRICITY":0.0001794,"INCLINATION":87.9259,"RA_OF_ASC_NODE":5.3354,"ARG_OF_PERICENTER":59.6871,"MEAN_ANOMALY":300.4439,"EPHEMERIS_TYPE":0,"CLASSIFICATION_TYPE":"U","NORAD_CAT_ID":55803,"ELEMENT_SET_NO":999,"REV_AT_EPOCH":11886,"BSTAR":0.00021181,"MEAN_MOTION_DOT":9.8e-7,"MEAN_MOTION_DDOT":0},{"OBJECT_NAME":"ONEWEB-0640","OBJECT_ID":"2023-029J","EPOCH":"2025-08-17T14:47:45.948192","MEAN_MOTION":13.14502118,"ECCENTRICITY":0.0002452,"INCLINATION":87.9087,"RA_OF_ASC_NODE":350.1724,"ARG_OF_PERICENTER":87.1138,"MEAN_ANOMALY":273.0272,"EPHEMERIS_TYPE":0,"CLASSIFICATION_TYPE":"U","NORAD_CAT_ID":55804,"ELEMENT_SET_NO":999,"REV_AT_EPOCH":11953,"BSTAR":0.00030451,"MEAN_MOTION_DOT":1.26e-6,"MEAN_MOTION_DDOT":0},{"OBJECT_NAME":"ONEWEB-0641","OBJECT_ID":"2023-029K","EPOCH":"2025-08-17T07:19:20.656416","MEAN_MOTION":13.1972556,"ECCENTRICITY":0.000175,"INCLINATION":87.9263,"RA_OF_ASC_NODE":5.3681,"ARG_OF_PERICENTER":90.3022,"MEAN_ANOMALY":269.8311,"EPHEMERIS_TYPE":0,"CLASSIFICATION_TYPE":"U","NORAD_CAT_ID":55805,"ELEMENT_SET_NO":999,"REV_AT_EPOCH":11883,"BSTAR":-5.7286e-5,"MEAN_MOTION_DOT":-1.0e-7,"MEAN_MOTION_DDOT":0},{"OBJECT_NAME":"ONEWEB-0642","OBJECT_ID":"2023-029L","EPOCH":"2025-08-17T09:01:41.488896","MEAN_MOTION":13.19727308,"ECCENTRICITY":0.0001462,"INCLINATION":87.9257,"RA_OF_ASC_NODE":5.3903,"ARG_OF_PERICENTER":66.6553,"MEAN_ANOMALY":293.4734,"EPHEMERIS_TYPE":0,"CLASSIFICATION_TYPE":"U","NORAD_CAT_ID":55806,"ELEMENT_SET_NO":999,"REV_AT_EPOCH":11883,"BSTAR":0.00015813,"MEAN_MOTION_DOT":7.6e-7,"MEAN_MOTION_DDOT":0},{"OBJECT_NAME":"ONEWEB-0643","OBJECT_ID":"2023-029M","EPOCH":"2025-08-17T14:04:22.513152","MEAN_MOTION":13.14502262,"ECCENTRICITY":0.0001405,"INCLINATION":87.908,"RA_OF_ASC_NODE":350.161,"ARG_OF_PERICENTER":84.3089,"MEAN_ANOMALY":275.8201,"EPHEMERIS_TYPE":0,"CLASSIFICATION_TYPE":"U","NORAD_CAT_ID":55807,"ELEMENT_SET_NO":999,"REV_AT_EPOCH":11950,"BSTAR":-0.00026842,"MEAN_MOTION_DOT":-8.7e-7,"MEAN_MOTION_DDOT":0},{"OBJECT_NAME":"ONEWEB-0644","OBJECT_ID":"2023-029N","EPOCH":"2025-08-17T03:27:19.967904","MEAN_MOTION":13.19726775,"ECCENTRICITY":0.0001543,"INCLINATION":87.9263,"RA_OF_ASC_NODE":5.443,"ARG_OF_PERICENTER":81.0126,"MEAN_ANOMALY":279.1182,"EPHEMERIS_TYPE":0,"CLASSIFICATION_TYPE":"U","NORAD_CAT_ID":55808,"ELEMENT_SET_NO":999,"REV_AT_EPOCH":11880,"BSTAR":1.2255e-5,"MEAN_MOTION_DOT":1.8e-7,"MEAN_MOTION_DDOT":0},{"OBJECT_NAME":"ONEWEB-0645","OBJECT_ID":"2023-029P","EPOCH":"2025-08-17T03:21:39.876768","MEAN_MOTION":13.19725517,"ECCENTRICITY":0.0001981,"INCLINATION":87.9247,"RA_OF_ASC_NODE":5.4329,"ARG_OF_PERICENTER":87.6834,"MEAN_ANOMALY":272.4525,"EPHEMERIS_TYPE":0,"CLASSIFICATION_TYPE":"U","NORAD_CAT_ID":55809,"ELEMENT_SET_NO":999,"REV_AT_EPOCH":11880,"BSTAR":-0.00012663,"MEAN_MOTION_DOT":-3.8e-7,"MEAN_MOTION_DDOT":0},{"OBJECT_NAME":"ONEWEB-0646","OBJECT_ID":"2023-029Q","EPOCH":"2025-08-17T07:47:54.085920","MEAN_MOTION":13.19254348,"ECCENTRICITY":0.0001634,"INCLINATION":87.9245,"RA_OF_ASC_NODE":5.3889,"ARG_OF_PERICENTER":91.7095,"MEAN_ANOMALY":268.4224,"EPHEMERIS_TYPE":0,"CLASSIFICATION_TYPE":"U","NORAD_CAT_ID":55810,"ELEMENT_SET_NO":999,"REV_AT_EPOCH":11881,"BSTAR":0.00031005,"MEAN_MOTION_DOT":1.36e-6,"MEAN_MOTION_DDOT":0},{"OBJECT_NAME":"ONEWEB-0648","OBJECT_ID":"2023-029R","EPOCH":"2025-08-17T15:08:20.703552","MEAN_MOTION":13.14503863,"ECCENTRICITY":0.000194,"INCLINATION":87.908,"RA_OF_ASC_NODE":350.1266,"ARG_OF_PERICENTER":68.9177,"MEAN_ANOMALY":291.216,"EPHEMERIS_TYPE":0,"CLASSIFICATION_TYPE":"U","NORAD_CAT_ID":55811,"ELEMENT_SET_NO":999,"REV_AT_EPOCH":11951,"BSTAR":0.00078518,"MEAN_MOTION_DOT":3.04e-6,"MEAN_MOTION_DDOT":0},{"OBJECT_NAME":"ONEWEB-0649","OBJECT_ID":"2023-029S","EPOCH":"2025-08-17T08:38:57.482592","MEAN_MOTION":13.1972449,"ECCENTRICITY":0.0001837,"INCLINATION":87.9259,"RA_OF_ASC_NODE":5.3759,"ARG_OF_PERICENTER":81.4054,"MEAN_ANOMALY":278.7287,"EPHEMERIS_TYPE":0,"CLASSIFICATION_TYPE":"U","NORAD_CAT_ID":55812,"ELEMENT_SET_NO":999,"REV_AT_EPOCH":11885,"BSTAR":3.4226e-5,"MEAN_MOTION_DOT":2.7e-7,"MEAN_MOTION_DDOT":0},{"OBJECT_NAME":"ONEWEB-0650","OBJECT_ID":"2023-029T","EPOCH":"2025-08-17T08:32:08.062368","MEAN_MOTION":13.19724822,"ECCENTRICITY":0.0001711,"INCLINATION":87.9258,"RA_OF_ASC_NODE":5.3878,"ARG_OF_PERICENTER":91.3056,"MEAN_ANOMALY":268.8273,"EPHEMERIS_TYPE":0,"CLASSIFICATION_TYPE":"U","NORAD_CAT_ID":55813,"ELEMENT_SET_NO":999,"REV_AT_EPOCH":11882,"BSTAR":-1.022e-5,"MEAN_MOTION_DOT":9.0e-8,"MEAN_MOTION_DDOT":0},{"OBJECT_NAME":"ONEWEB-0652","OBJECT_ID":"2023-029U","EPOCH":"2025-08-17T14:40:54.724800","MEAN_MOTION":13.14502324,"ECCENTRICITY":0.00019,"INCLINATION":87.9088,"RA_OF_ASC_NODE":350.1424,"ARG_OF_PERICENTER":103.6489,"MEAN_ANOMALY":256.4853,"EPHEMERIS_TYPE":0,"CLASSIFICATION_TYPE":"U","NORAD_CAT_ID":55814,"ELEMENT_SET_NO":999,"REV_AT_EPOCH":11948,"BSTAR":-0.0001646,"MEAN_MOTION_DOT":-4.8e-7,"MEAN_MOTION_DDOT":0},{"OBJECT_NAME":"ONEWEB-0653","OBJECT_ID":"2023-029V","EPOCH":"2025-08-17T14:18:05.576832","MEAN_MOTION":13.14502976,"ECCENTRICITY":0.0002075,"INCLINATION":87.909,"RA_OF_ASC_NODE":350.1349,"ARG_OF_PERICENTER":99.834,"MEAN_ANOMALY":260.3024,"EPHEMERIS_TYPE":0,"CLASSIFICATION_TYPE":"U","NORAD_CAT_ID":55815,"ELEMENT_SET_NO":999,"REV_AT_EPOCH":11951,"BSTAR":-0.00022709,"MEAN_MOTION_DOT":-7.1e-7,"MEAN_MOTION_DDOT":0},{"OBJECT_NAME":"ONEWEB-0654","OBJECT_ID":"2023-029W","EPOCH":"2025-08-17T14:11:13.784928","MEAN_MOTION":13.14503479,"ECCENTRICITY":0.0002081,"INCLINATION":87.9083,"RA_OF_ASC_NODE":350.134,"ARG_OF_PERICENTER":108.1965,"MEAN_ANOMALY":251.9391,"EPHEMERIS_TYPE":0,"CLASSIFICATION_TYPE":"U","NORAD_CAT_ID":55816,"ELEMENT_SET_NO":999,"REV_AT_EPOCH":11953,"BSTAR":-0.00050464,"MEAN_MOTION_DOT":-1.74e-6,"MEAN_MOTION_DDOT":0},{"OBJECT_NAME":"ONEWEB-0656","OBJECT_ID":"2023-029X","EPOCH":"2025-08-17T13:42:02.481984","MEAN_MOTION":13.20780307,"ECCENTRICITY":0.0002209,"INCLINATION":87.9304,"RA_OF_ASC_NODE":334.9266,"ARG_OF_PERICENTER":110.0192,"MEAN_ANOMALY":250.1179,"EPHEMERIS_TYPE":0,"CLASSIFICATION_TYPE":"U","NORAD_CAT_ID":55817,"ELEMENT_SET_NO":999,"REV_AT_EPOCH":12107,"BSTAR":0.0026487,"MEAN_MOTION_DOT":1.09e-5,"MEAN_MOTION_DDOT":0}]
